OBJECT_NAME,OBJECT_ID,EPOCH,MEAN_MOTION,ECCENTRICITY,INCLINATION,RA_OF_ASC_NODE,ARG_OF_PERICENTER,MEAN_ANOMALY,EPHEMERIS_TYPE,CLASSIFICATION_TYPE,NORAD_CAT_ID,ELEMENT_SET_NO,REV_AT_EPOCH,BSTAR,MEAN_MOTION_DOT,MEAN_MOTION_DDOT
BIRKELAND,2023-001G,2026-06-25T14:13:37.754976,15.40214005,.00081909,97.3348,244.5842,81.4730,278.7444,0,U,55015,999,19364,.28337161E-3,.11317E-3,0
ION SCV-008,2023-001AU,2026-06-25T06:56:59.936640,15.28660677,.00142222,97.5711,272.7433,349.8834,10.2117,0,U,55051,999,19257,.25285235E-3,.6989E-4,0
ION SCV-007,2023-001BD,2026-06-25T06:09:36.885024,14.77559818,.00112548,97.9004,239.1116,314.4800,45.5490,0,U,55060,999,18744,.63821435E-4,.405E-5,0
HUYGENS,2023-001CN,2026-06-25T14:13:44.353344,15.40214656,.00106,97.3253,243.8033,60.4817,299.7485,0,U,55093,999,19366,.29380698E-3,.11747E-3,0
SHARJAHSAT-1,2023-001CZ,2026-06-25T15:20:01.500000,15.49381254,.00065406,97.3179,245.5224,79.7886,280.4103,0,U,55104,999,19380,.43868093E-3,.2402E-3,0
HORUS 1,2023-025A,2026-06-25T15:02:35.048256,15.23343122,.00019937,97.3465,251.0439,141.0531,219.0850,0,U,55690,999,18533,.30492853E-3,.7175E-4,0
HORUS 2,2023-032A,2026-06-25T14:17:59.122752,15.23507799,.00023269,97.3537,251.8284,97.8924,262.2578,0,U,55844,999,18276,.27487283E-3,.6493E-4,0
GLOBAL-19,2023-041B,2026-06-25T09:50:43.811520,15.38189723,.00074922,41.9997,153.9272,65.9582,294.2041,0,U,55982,999,18319,.40293816E-3,.15278E-3,0
ION SCV-010,2023-054Q,2026-06-25T05:22:56.227296,15.26257791,.00130756,97.3779,65.6231,168.4416,191.7125,0,U,56192,999,17742,.19701118E-3,.5043E-4,0
TELEOS-2,2023-057C,2026-06-25T11:41:55.527936,14.96397054,.00002084,9.9873,143.7435,341.8813,18.1393,0,U,56310,999,17404,-.348345E-6,.683E-5,0
SNIPE 4,2023-072B,2026-06-25T13:58:47.462592,15.42644633,.00038289,97.5248,22.8556,298.3386,61.7474,0,U,56744,999,17140,.55690864E-3,.24214E-3,0
SNIPE 2,2023-072C,2026-06-25T14:24:58.406400,15.47252246,.00033173,97.5241,25.9771,339.9360,20.1758,0,U,56745,999,17154,.66725395E-3,.33991E-3,0
2023-072G,2023-072G,2026-06-25T15:29:18.358368,15.51025042,.00018784,97.4898,24.8367,331.2988,28.8160,0,U,56749,999,17177,.61840599E-3,.35948E-3,0
GEISAT PRECURSOR,2023-084C,2026-06-25T15:06:58.175136,15.34757470,.00042911,97.6226,317.8617,322.4201,37.6741,0,U,56934,999,16882,.25158951E-3,.8395E-4,0
BLACKJACK ACES-3,2023-084U,2026-06-25T06:36:31.160160,15.18540552,.00018943,97.6215,311.5280,16.1064,344.0230,0,U,56950,999,16839,.2745021E-3,.5599E-4,0
BLACKJACK ACES-2,2023-084Z,2026-06-25T09:54:55.639008,15.18570018,.00007057,97.6211,311.7515,104.1520,255.9792,0,U,56955,999,16842,.35715955E-3,.7314E-4,0
BLACKJACK ACES-1,2023-084AA,2026-06-25T09:37:29.631360,15.18546582,.00011073,97.6199,311.5123,125.3162,234.8176,0,U,56956,999,11814,.3900276E-3,.7989E-4,0
ION SCV-011,2023-084AB,2026-06-25T12:13:12.720000,15.28919936,.00074042,98.1380,4.5602,19.0412,341.1101,0,U,56957,999,16708,.20782557E-3,.5754E-4,0
GHOST-3,2023-084AC,2026-06-25T08:57:07.700256,15.48130254,.00057576,97.6216,325.3853,260.1745,99.8855,0,U,56958,999,16928,.40769144E-3,.21346E-3,0
TOMORROW-R2,2023-084AG,2026-06-25T09:52:12.850176,16.24983930,.00107617,97.6014,341.9723,253.0830,106.9281,0,U,56962,999,17038,.8762787E-3,.2480231E-1,.2586754E-5
AFR-1,2023-084AJ,2026-06-25T13:06:12.918240,15.28618832,.00092721,97.6278,313.4386,314.9850,45.0637,0,U,56964,999,16850,.18800165E-3,.5159E-4,0
METEOR-M2 3,2023-091A,2026-06-25T14:24:17.955648,14.24047424,.00047641,98.6079,231.4064,134.7604,225.3964,0,U,57166,999,15571,.17596665E-4,-.3E-7,0
UMKA 1 (RS40S),2023-091G,2026-06-25T12:22:27.426144,15.20907085,.00143069,97.5051,235.1806,91.9943,268.2931,0,U,57172,999,16527,.37188391E-3,.8178E-4,0
2023-091H,2023-091H,2026-06-25T13:28:25.206240,15.28806183,.00111795,97.5051,239.8214,87.8723,272.3797,0,U,57173,999,16558,.52401452E-3,.14633E-3,0
2023-091J,2023-091J,2026-06-25T12:23:25.918080,15.13980638,.00147853,97.5054,229.4939,116.9469,243.3274,0,U,57174,999,16489,.22742808E-3,.4071E-4,0
CUBEBEL 2 (EU11S),2023-091K,2026-06-25T13:25:30.775872,15.29349443,.00111641,97.5054,239.8514,89.3079,270.9440,0,U,57175,999,16558,.59897688E-3,.17024E-3,0
SITRO-AIS 5 (KATYS),2023-091L,2026-06-25T12:13:26.635584,15.29633356,.00125198,97.5063,240.4881,77.6689,282.5952,0,U,57176,999,16561,.53665103E-3,.15383E-3,0
ZORKIY-2M 1,2023-091M,2026-06-25T12:02:08.652192,15.21005205,.00148116,97.5093,235.4403,89.4375,270.8558,0,U,57177,999,16526,.40665735E-3,.8978E-4,0
CUBESX-HSE 3 (RS42S),2023-091N,2026-06-25T12:54:52.828416,15.31410874,.00116164,97.5094,242.2312,68.7576,291.4904,0,U,57178,999,16570,.57733627E-3,.17491E-3,0
MONITOR-3 (RS58S),2023-091Q,2026-06-25T12:22:30.339552,15.27997849,.00128192,97.5086,240.0230,75.1032,285.1626,0,U,57180,999,16556,.50512017E-3,.13765E-3,0
