BIRKELAND               
1 55015U 23001G   26176.59279809  .00011317  00000+0  28337-3 0  9991
2 55015  97.3348 244.5842 0008190  81.4730 278.7444 15.40214005193643
ION SCV-008             
1 55051U 23001AU  26176.28958260  .00006989  00000+0  25285-3 0  9990
2 55051  97.5711 272.7433 0014222 349.8834  10.2117 15.28660677192570
ION SCV-007             
1 55060U 23001BD  26176.25667691  .00000405  00000+0  63821-4 0  9998
2 55060  97.9004 239.1116 0011254 314.4800  45.5490 14.77559818187449
HUYGENS                 
1 55093U 23001CN  26176.59287446  .00011747  00000+0  29381-3 0  9990
2 55093  97.3253 243.8033 0010600  60.4817 299.7485 15.40214656193662
SHARJAHSAT-1            
1 55104U 23001CZ  26176.63890625  .00024020  00000+0  43868-3 0  9991
2 55104  97.3179 245.5224 0006540  79.7886 280.4103 15.49381254193808
HORUS 1                 
1 55690U 23025A   26176.62679454  .00007175  00000+0  30493-3 0  9993
2 55690  97.3465 251.0439 0001993 141.0531 219.0850 15.23343122185333
HORUS 2                 
1 55844U 23032A   26176.59582318  .00006493  00000+0  27487-3 0  9991
2 55844  97.3537 251.8284 0002326  97.8924 262.2578 15.23507799182768
GLOBAL-19               
1 55982U 23041B   26176.41022930  .00015278  00000+0  40294-3 0  9996
2 55982  41.9997 153.9272 0007492  65.9582 294.2041 15.38189723183197
ION SCV-010             
1 56192U 23054Q   26176.22426189  .00005043  00000+0  19701-3 0  9995
2 56192  97.3779  65.6231 0013075 168.4416 191.7125 15.26257791177428
TELEOS-2                
1 56310U 23057C   26176.48744824  .00000683  00000+0 -34834-6 0  9990
2 56310   9.9873 143.7435 0000208 341.8813  18.1393 14.96397054174047
SNIPE 4                 
1 56744U 23072B   26176.58249378  .00024214  00000+0  55691-3 0  9999
2 56744  97.5248  22.8556 0003828 298.3386  61.7474 15.42644633171401
SNIPE 2                 
1 56745U 23072C   26176.60067600  .00033991  00000+0  66725-3 0  9991
2 56745  97.5241  25.9771 0003317 339.9360  20.1758 15.47252246171544
2023-072G               
1 56749U 23072G   26176.64535137  .00035948  00000+0  61841-3 0  9992
2 56749  97.4898  24.8367 0001878 331.2988  28.8160 15.51025042171779
GEISAT PRECURSOR        
1 56934U 23084C   26176.62983999  .00008395  00000+0  25159-3 0  9990
2 56934  97.6226 317.8617 0004291 322.4201  37.6741 15.34757470168820
BLACKJACK ACES-3        
1 56950U 23084U   26176.27536065  .00005599  00000+0  27450-3 0  9996
2 56950  97.6215 311.5280 0001894  16.1064 344.0230 15.18540552168396
BLACKJACK ACES-2        
1 56955U 23084Z   26176.41314397  .00007314  00000+0  35716-3 0  9990
2 56955  97.6211 311.7515 0000705 104.1520 255.9792 15.18570018168422
BLACKJACK ACES-1        
1 56956U 23084AA  26176.40103740  .00007989  00000+0  39003-3 0  9999
2 56956  97.6199 311.5123 0001107 125.3162 234.8176 15.18546582118140
ION SCV-011             
1 56957U 23084AB  26176.50917500  .00005754  00000+0  20783-3 0  9991
2 56957  98.1380   4.5602 0007404  19.0412 341.1101 15.28919936167088
GHOST-3                 
1 56958U 23084AC  26176.37300579  .00021346  00000+0  40769-3 0  9990
2 56958  97.6216 325.3853 0005757 260.1745  99.8855 15.48130254169287
TOMORROW-R2             
1 56962U 23084AG  26176.41125984  .02480231  25868-5  87628-3 0  9999
2 56962  97.6014 341.9723 0010761 253.0830 106.9281 16.24983930170383
AFR-1                   
1 56964U 23084AJ  26176.54598285  .00005159  00000+0  18800-3 0  9994
2 56964  97.6278 313.4386 0009272 314.9850  45.0637 15.28618832168508
METEOR-M2 3             
1 57166U 23091A   26176.60020782 -.00000003  00000+0  17597-4 0  9993
2 57166  98.6079 231.4064 0004764 134.7604 225.3964 14.24047424155714
UMKA 1 (RS40S)          
1 57172U 23091G   26176.51559521  .00008178  00000+0  37188-3 0  9995
2 57172  97.5051 235.1806 0014306  91.9943 268.2931 15.20907085165274
2023-091H               
1 57173U 23091H   26176.56140285  .00014633  00000+0  52401-3 0  9992
2 57173  97.5051 239.8214 0011179  87.8723 272.3797 15.28806183165589
2023-091J               
1 57174U 23091J   26176.51627220  .00004071  00000+0  22743-3 0  9998
2 57174  97.5054 229.4939 0014785 116.9469 243.3274 15.13980638164892
CUBEBEL 2 (EU11S)       
1 57175U 23091K   26176.55938398  .00017024  00000+0  59898-3 0  9997
2 57175  97.5054 239.8514 0011164  89.3079 270.9440 15.29349443165583
SITRO-AIS 5 (KATYS)     
1 57176U 23091L   26176.50933606  .00015383  00000+0  53665-3 0  9992
2 57176  97.5063 240.4881 0012519  77.6689 282.5952 15.29633356165611
ZORKIY-2M 1             
1 57177U 23091M   26176.50148903  .00008978  00000+0  40666-3 0  9990
2 57177  97.5093 235.4403 0014811  89.4375 270.8558 15.21005205165260
CUBESX-HSE 3 (RS42S)    
1 57178U 23091N   26176.53811144  .00017491  00000+0  57734-3 0  9992
2 57178  97.5094 242.2312 0011616  68.7576 291.4904 15.31410874165706
MONITOR-3 (RS58S)       
1 57180U 23091Q   26176.51562893  .00013765  00000+0  50512-3 0  9994
2 57180  97.5086 240.0230 0012819  75.1032 285.1626 15.27997849165562
